NORAD_CAT_ID,OBJECT_NAME,OBJECT_TYPE,EPOCH,MEAN_MOTION,ECCENTRICITY,INCLINATION,RA_OF_ASC_NODE,ARG_OF_PERICENTER,MEAN_ANOMALY,BSTAR,MEAN_MOTION_DOT,MEAN_MOTION_DDOT,TLE_LINE0,TLE_LINE1,TLE_LINE2,SEMIMAJOR_AXIS,PERIOD,APOGEE,PERIGEE,DECAYED
54054.0,STARLINK-5163,PAYLOAD,2024-03-13 12:13:50,15.08859458,0.0001385,53.2182,4.1951,89.3331,270.782,0.00020739,3.016e-05,0.0,0 STARLINK-5163,1 54054U 22136D   24073.50960841  .00003016  00000-0  20739-3 0  9995,2 54054  53.2182   4.1951 0001385  89.3331 270.7820 15.08859458 77693,6917.821,95.436,540.644,538.728,0.0
54054.0,STARLINK-5163,PAYLOAD,2024-03-14 04:07:42,15.08834184,0.0001561,53.2168,1.2223,61.73,298.3849,5.4662e-05,5.82e-06,0.0,0 STARLINK-5163,1 54054U 22136D   24074.17202075  .00000582  00000-0  54662-4 0  9995,2 54054  53.2168   1.2223 0001561  61.7300 298.3849 15.08834184 77790,6917.898,95.438,540.843,538.683,0.0
54054.0,STARLINK-5163,PAYLOAD,2024-03-14 05:43:05,15.08835799,0.0001665,53.2176,0.9254,63.9318,296.1846,-5.2887e-05,-1.13e-05,0.0,0 STARLINK-5163,1 54054U 22136D   24074.23825999 -.00001130  00000-0 -52887-4 0  9997,2 54054  53.2176   0.9254 0001665  63.9318 296.1846 15.08835799 77322,6917.893,95.438,540.91,538.606,0.0
54054.0,STARLINK-5163,PAYLOAD,2024-03-15 18:16:57,15.0884577,0.0001423,53.2176,354.0845,75.4137,284.7013,-7.4109e-05,-1.467e-05,0.0,0 STARLINK-5163,1 54054U 22136D   24075.76177671 -.00001467  00000-0 -74109-4 0  9997,2 54054  53.2176 354.0845 0001423  75.4137 284.7013 15.08845770 78038,6917.863,95.437,540.712,538.743,0.0
54054.0,STARLINK-5163,PAYLOAD,2024-03-16 03:49:16,15.08842494,0.000128,53.2172,352.3002,87.4701,272.6438,0.00029975,4.486e-05,0.0,0 STARLINK-5163,1 54054U 22136D   24076.15921937  .00004486  00000-0  29975-3 0  9995,2 54054  53.2172 352.3002 0001280  87.4701 272.6438 15.08842494 77611,6917.873,95.437,540.623,538.852,0.0
54054.0,STARLINK-5163,PAYLOAD,2024-03-16 22:53:54,15.08838782,0.0001176,53.2164,348.7305,99.6,260.5125,0.00014591,2.035e-05,0.0,0 STARLINK-5163,1 54054U 22136D   24076.95410244  .00002035  00000-0  14591-3 0  9993,2 54054  53.2164 348.7305 0001176  99.6000 260.5125 15.08838782 77735,6917.884,95.438,540.563,538.936,0.0
54054.0,STARLINK-5163,PAYLOAD,2024-03-17 00:29:17,15.08839673,0.0001206,53.2164,348.4332,96.9166,263.1964,0.00015721,2.215e-05,0.0,0 STARLINK-5163,1 54054U 22136D   24077.02034234  .00002215  00000-0  15721-3 0  9999,2 54054  53.2164 348.4332 0001206  96.9166 263.1964 15.08839673 78224,6917.881,95.438,540.581,538.912,0.0
54054.0,STARLINK-5163,PAYLOAD,2024-03-17 22:44:41,15.08842682,0.0001468,53.218,344.2709,104.8938,255.2216,0.00011108,1.48e-05,0.0,0 STARLINK-5163,1 54054U 22136D   24077.94770148  .00001480  00000-0  11108-3 0  9999,2 54054  53.2180 344.2709 0001468 104.8938 255.2216 15.08842682 77887,6917.872,95.437,540.753,538.722,0.0
54054.0,STARLINK-5163,PAYLOAD,2024-03-18 00:20:04,15.08843104,0.0001486,53.2182,343.9737,104.7164,255.3993,0.00011236,1.501e-05,0.0,0 STARLINK-5163,1 54054U 22136D   24078.01394118  .00001501  00000-0  11236-3 0  9993,2 54054  53.2182 343.9737 0001486 104.7164 255.3993 15.08843104 77890,6917.871,95.437,540.764,538.708,0.0
54054.0,STARLINK-5163,PAYLOAD,2024-03-18 21:00:05,15.08842242,0.0001462,53.2179,340.1079,101.3195,258.7961,0.00012151,1.647e-05,0.0,0 STARLINK-5163,1 54054U 22136D   24078.87506135  .00001647  00000-0  12151-3 0  9999,2 54054  53.2179 340.1079 0001462 101.3195 258.7961 15.08842242 78508,6917.874,95.437,540.75,538.727,0.0
54054.0,STARLINK-5163,PAYLOAD,2024-03-18 22:35:28,15.08841731,0.0001436,53.2177,339.8103,102.1281,257.9872,0.00011032,1.468e-05,0.0,0 STARLINK-5163,1 54054U 22136D   24078.94130141  .00001468  00000-0  11032-3 0  9995,2 54054  53.2177 339.8103 0001436 102.1281 257.9872 15.08841731 78037,6917.875,95.437,540.734,538.747,0.0
54054.0,STARLINK-5163,PAYLOAD,2024-03-19 03:21:37,15.08843946,0.0001411,53.2184,338.9175,105.2843,254.8305,0.0001311,1.799e-05,0.0,0 STARLINK-5163,1 54054U 22136D   24079.14001962  .00001799  00000-0  13110-3 0  9992,2 54054  53.2184 338.9175 0001411 105.2843 254.8305 15.08843946 78065,6917.868,95.437,540.709,538.757,0.0
54054.0,STARLINK-5163,PAYLOAD,2024-03-20 00:01:37,15.08849476,0.0001398,53.2175,335.0529,107.4993,252.6151,0.00014407,2.006e-05,0.0,0 STARLINK-5163,1 54054U 22136D   24080.00113387  .00002006  00000-0  14407-3 0  9996,2 54054  53.2175 335.0529 0001398 107.4993 252.6151 15.08849476 78676,6917.851,95.437,540.684,538.749,0.0
54054.0,STARLINK-5163,PAYLOAD,2024-03-20 03:12:24,15.08851596,0.0001368,53.2172,334.4574,107.4269,252.6873,0.00016109,2.278e-05,0.0,0 STARLINK-5163,1 54054U 22136D   24080.13361190  .00002278  00000-0  16109-3 0  9999,2 54054  53.2172 334.4574 0001368 107.4269 252.6873 15.08851596 78216,6917.845,95.437,540.656,538.764,0.0
54054.0,STARLINK-5163,PAYLOAD,2024-03-20 20:41:38,15.08838569,0.0001297,53.2178,331.1801,115.1859,244.9268,-3.5246e-05,-8.49e-06,0.0,0 STARLINK-5163,1 54054U 22136D   24080.86225665 -.00000849  00000-0 -35246-4 0  9993,2 54054  53.2178 331.1801 0001297 115.1859 244.9268 15.08838569 78803,6917.885,95.438,540.647,538.853,0.0
54054.0,STARLINK-5163,PAYLOAD,2024-03-20 22:17:02,15.0883664,0.0001293,53.2183,330.8826,116.2684,243.8441,-6.5134e-05,-1.324e-05,0.0,0 STARLINK-5163,1 54054U 22136D   24080.92849825 -.00001324  00000-0 -65134-4 0  9998,2 54054  53.2183 330.8826 0001293 116.2684 243.8441 15.08836640 78333,6917.891,95.438,540.65,538.861,0.0
54054.0,STARLINK-5163,PAYLOAD,2024-03-20 23:52:25,15.08832531,0.0001109,53.2174,330.5922,97.4855,262.6263,-9.6223e-05,-1.819e-05,0.0,0 STARLINK-5163,1 54054U 22136D   24080.99474267 -.00001819  00000-0 -96223-4 0  9991,2 54054  53.2174 330.5922 0001109  97.4855 262.6263 15.08832531 78823,6917.903,95.438,540.535,539.001,0.0
54054.0,STARLINK-5163,PAYLOAD,2024-03-21 09:24:44,15.08836149,0.000115,53.2176,328.8082,103.4727,256.6393,-2.3207e-05,-6.57e-06,0.0,0 STARLINK-5163,1 54054U 22136D   24081.39218203 -.00000657  00000-0 -23207-4 0  9993,2 54054  53.2176 328.8082 0001150 103.4727 256.6393 15.08836149 78404,6917.892,95.438,540.553,538.962,0.0
54054.0,STARLINK-5163,PAYLOAD,2024-03-21 22:07:49,15.08837778,0.0001364,53.2186,326.4316,109.8253,250.2886,5.2736e-05,5.51e-06,0.0,0 STARLINK-5163,1 54054U 22136D   24081.92210412  .00000551  00000-0  52736-4 0  9996,2 54054  53.2186 326.4316 0001364 109.8253 250.2886 15.08837778 78484,6917.887,95.438,540.696,538.809,0.0
54054.0,STARLINK-5163,PAYLOAD,2024-03-22 01:18:35,15.08851959,0.0001294,53.2166,325.8338,130.8835,229.227,0.00023305,3.424e-05,0.0,0 STARLINK-5163,1 54054U 22136D   24082.05457404  .00003424  00000-0  23305-3 0  9996,2 54054  53.2166 325.8338 0001294 130.8835 229.2270 15.08851959 78986,6917.844,95.437,540.604,538.814,0.0
54054.0,STARLINK-5163,PAYLOAD,2024-03-22 20:23:13,15.08839796,0.0001506,53.2181,322.2666,118.1282,241.9862,0.00019925,2.884e-05,0.0,0 STARLINK-5163,1 54054U 22136D   24082.84946440  .00002884  00000-0  19925-3 0  9998,2 54054  53.2181 322.2666 0001506 118.1282 241.9862 15.08839796 79107,6917.881,95.438,540.788,538.704,0.0
54054.0,STARLINK-5163,PAYLOAD,2024-03-22 21:58:36,15.08838975,0.0001397,53.218,321.9692,127.3372,232.7747,0.00017836,2.552e-05,0.0,0 STARLINK-5163,1 54054U 22136D   24082.91570426  .00002552  00000-0  17836-3 0  9994,2 54054  53.2180 321.9692 0001397 127.3372 232.7747 15.08838975 78636,6917.884,95.438,540.715,538.782,0.0
54054.0,STARLINK-5163,PAYLOAD,2024-03-23 01:09:23,15.08833771,0.0001202,53.2172,321.3745,107.8408,252.2716,0.00012066,1.633e-05,0.0,0 STARLINK-5163,1 54054U 22136D   24083.04818825  .00001633  00000-0  12066-3 0  9996,2 54054  53.2172 321.3745 0001202 107.8408 252.2716 15.08833771 79136,6917.899,95.438,540.596,538.933,0.0
54054.0,STARLINK-5163,PAYLOAD,2024-03-23 21:49:24,15.08840965,0.0001319,53.2178,317.5097,92.3063,267.808,0.0001081,1.433e-05,0.0,0 STARLINK-5163,1 54054U 22136D   24083.90930767  .00001433  00000-0  10810-3 0  9994,2 54054  53.2178 317.5097 0001319  92.3063 267.8080 15.08840965 78782,6917.877,95.437,540.655,538.83,0.0
54054.0,STARLINK-5163,PAYLOAD,2024-03-24 08:57:05,15.08859109,0.0001248,53.218,315.427,93.1635,266.95,0.00023448,3.448e-05,0.0,0 STARLINK-5163,1 54054U 22136D   24084.37297614  .00003448  00000-0  23448-3 0  9992,2 54054  53.2180 315.4270 0001248  93.1635 266.9500 15.08859109 79339,6917.822,95.436,540.55,538.824,0.0
54054.0,STARLINK-5163,PAYLOAD,2024-03-24 21:40:13,15.08820233,7.94e-05,53.2177,313.0478,101.3619,258.7462,2.5753e-05,1.22e-06,0.0,0 STARLINK-5163,1 54054U 22136D   24084.90293194  .00000122  00000-0  25753-4 0  9998,2 54054  53.2177 313.0478 0000794 101.3619 258.7462 15.08820233 79419,6917.941,95.439,540.355,539.257,0.0
54054.0,STARLINK-5163,PAYLOAD,2024-03-25 21:30:58,15.08861007,0.0001242,53.2172,308.5893,92.51,267.6034,0.00064463,9.992e-05,0.0,0 STARLINK-5163,1 54054U 22136D   24085.89651355  .00009992  00000-0  64463-3 0  9998,2 54054  53.2172 308.5893 0001242  92.5100 267.6034 15.08861007 79563,6917.816,95.436,540.54,538.822,0.0
54054.0,STARLINK-5163,PAYLOAD,2024-03-26 21:21:47,15.08820388,0.0001085,53.2161,304.1259,79.6083,280.5031,-3.267e-05,-8.07e-06,0.0,0 STARLINK-5163,1 54054U 22136D   24086.89013031 -.00000807  00000-0 -32670-4 0  9996,2 54054  53.2161 304.1259 0001085  79.6083 280.5031 15.08820388 79715,6917.94,95.439,540.556,539.055,0.0
54054.0,STARLINK-5163,PAYLOAD,2024-03-27 06:54:05,15.08825524,0.0001212,53.217,302.3439,80.4245,279.6884,-0.00032169,-5.402e-05,0.0,0 STARLINK-5163,1 54054U 22136D   24087.28756789 -.00005402  00000-0 -32169-3 0  9992,2 54054  53.2170 302.3439 0001212  80.4245 279.6884 15.08825524 79775,6917.925,95.438,540.628,538.951,0.0
54054.0,STARLINK-5163,PAYLOAD,2024-03-27 21:12:33,15.0883993,0.0001056,53.2148,299.667,71.1721,288.9386,8.0936e-05,1.001e-05,0.0,0 STARLINK-5163,1 54054U 22136D   24087.88372605  .00001001  00000-0  80936-4 0  9994,2 54054  53.2148 299.6670 0001056  71.1721 288.9386 15.08839930 79863,6917.881,95.438,540.476,539.015,0.0
